KUIPER-00008            
1 63724U 25088A   26063.16670139 -.00002708  00000+0 -23574-3 0  9997
2 63724  51.8931 112.2710 0009167  80.6574 173.6324 14.92685418  5311
KUIPER-00009            
1 63725U 25088B   26063.17796679 -.00006704  00000+0 -85139-3 0  9992
2 63725  51.9031 131.0115 0007846  81.5145 278.6706 14.79889329 46966
KUIPER-00010            
1 63726U 25088C   26063.10265090 -.00003380  00000+0 -41432-3 0  9999
2 63726  51.9016 107.7961 0001118  85.5876 274.5214 14.79953356 46905
KUIPER-00011            
1 63727U 25088D   26063.12796265  .00005977  00000+0  81036-3 0  9991
2 63727  51.8995 115.2477 0000420  55.7206 304.3796 14.80036854 46935
KUIPER-00012            
1 63728U 25088E   26062.58336806  .00023462  00000+0  30810-2 0  9994
2 63728  51.8997 102.5846 0000837 318.0085 110.1831 14.80134748  3688
KUIPER-00013            
1 63729U 25088F   26063.17703296  .00004826  00000+0  66362-3 0  9997
2 63729  51.9026 132.4735 0002980  26.7478 333.3638 14.79807407 46758
KUIPER-00014            
1 63730U 25088G   26063.17518125  .00007708  00000+0  10374-2 0  9997
2 63730  51.9010 133.4514 0000436  16.1966 343.9010 14.79994604 46553
KUIPER-00015            
1 63731U 25088H   26062.66038384  .00008095  00000+0  99876-3 0  9990
2 63731  51.8986 145.1515 0009719  55.0068 305.1807 14.83576691 46803
KUIPER-00016            
1 63732U 25088J   26062.63239597  .00006262  00000+0  85141-3 0  9991
2 63732  51.9011 138.3820 0006457  58.1210 302.0380 14.79839712 46438
KUIPER-00018            
1 63733U 25088K   26063.16670139 -.00001594  00000+0 -17992-3 0  9996
2 63733  51.9017 124.9877 0003057  83.8586 179.2546 14.79949961  2913
KUIPER-00019            
1 63734U 25088L   26063.18612381  .00002122  00000+0  30719-3 0  9992
2 63734  51.9000 123.4323 0000604 107.4666 252.6362 14.79938946 46699
KUIPER-00020            
1 63735U 25088M   26062.57461440  .00003368  00000+0  47122-3 0  9992
2 63735  51.9016 130.1296 0006711  65.7209 294.4453 14.79884890 46755
KUIPER-00021            
1 63736U 25088N   26062.57299832  .00009996  00000+0  13372-2 0  9999
2 63736  51.9008 131.1335 0003305  71.8347 288.2975 14.79965300 46575
KUIPER-00023            
1 63737U 25088P   26063.17966766 -.00000944  00000+0 -94558-4 0  9997
2 63737  51.9007 129.9111 0008413  82.1213 278.0704 14.79900610 46945
KUIPER-00024            
1 63738U 25088Q   26063.12563042  .00002733  00000+0  38738-3 0  9996
2 63738  51.9034 117.7163 0000662  82.7245 277.3792 14.79936946 47230
KUIPER-00025            
1 63739U 25088R   26062.42967785  .00001322  00000+0  18688-3 0  9996
2 63739  51.9028 129.1898 0000251  53.5576 306.5411 14.83449957 46871
KUIPER-00027            
1 63740U 25088S   26063.19045381  .00007125  00000+0  96286-3 0  9999
2 63740  51.9006 119.9021 0000855  90.5677 269.5384 14.79922079 46803
