[{"OBJECT_NAME":"KUIPER-00008","OBJECT_ID":"2025-088A","EPOCH":"2026-03-04T04:00:03.000096","MEAN_MOTION":14.92685418,"ECCENTRICITY":0.0009167,"INCLINATION":51.8931,"RA_OF_ASC_NODE":112.271,"ARG_OF_PERICENTER":80.6574,"MEAN_ANOMALY":173.6324,"EPHEMERIS_TYPE":0,"CLASSIFICATION_TYPE":"U","NORAD_CAT_ID":63724,"ELEMENT_SET_NO":999,"REV_AT_EPOCH":531,"BSTAR":-0.00023574,"MEAN_MOTION_DOT":-2.708e-5,"MEAN_MOTION_DDOT":0},{"OBJECT_NAME":"KUIPER-00009","OBJECT_ID":"2025-088B","EPOCH":"2026-03-04T04:16:16.330656","MEAN_MOTION":14.79889329,"ECCENTRICITY":0.0007846,"INCLINATION":51.9031,"RA_OF_ASC_NODE":131.0115,"ARG_OF_PERICENTER":81.5145,"MEAN_ANOMALY":278.6706,"EPHEMERIS_TYPE":0,"CLASSIFICATION_TYPE":"U","NORAD_CAT_ID":63725,"ELEMENT_SET_NO":999,"REV_AT_EPOCH":4696,"BSTAR":-0.00085139,"MEAN_MOTION_DOT":-6.704e-5,"MEAN_MOTION_DDOT":0},{"OBJECT_NAME":"KUIPER-00010","OBJECT_ID":"2025-088C","EPOCH":"2026-03-04T02:27:49.037760","MEAN_MOTION":14.79953356,"ECCENTRICITY":0.0001118,"INCLINATION":51.9016,"RA_OF_ASC_NODE":107.7961,"ARG_OF_PERICENTER":85.5876,"MEAN_ANOMALY":274.5214,"EPHEMERIS_TYPE":0,"CLASSIFICATION_TYPE":"U","NORAD_CAT_ID":63726,"ELEMENT_SET_NO":999,"REV_AT_EPOCH":4690,"BSTAR":-0.00041432,"MEAN_MOTION_DOT":-3.38e-5,"MEAN_MOTION_DDOT":0},{"OBJECT_NAME":"KUIPER-00011","OBJECT_ID":"2025-088D","EPOCH":"2026-03-04T03:04:15.972960","MEAN_MOTION":14.80036854,"ECCENTRICITY":4.2e-5,"INCLINATION":51.8995,"RA_OF_ASC_NODE":115.2477,"ARG_OF_PERICENTER":55.7206,"MEAN_ANOMALY":304.3796,"EPHEMERIS_TYPE":0,"CLASSIFICATION_TYPE":"U","NORAD_CAT_ID":63727,"ELEMENT_SET_NO":999,"REV_AT_EPOCH":4693,"BSTAR":0.00081036,"MEAN_MOTION_DOT":5.977e-5,"MEAN_MOTION_DDOT":0},{"OBJECT_NAME":"KUIPER-00012","OBJECT_ID":"2025-088E","EPOCH":"2026-03-03T14:00:03.000384","MEAN_MOTION":14.80134748,"ECCENTRICITY":8.37e-5,"INCLINATION":51.8997,"RA_OF_ASC_NODE":102.5846,"ARG_OF_PERICENTER":318.0085,"MEAN_ANOMALY":110.1831,"EPHEMERIS_TYPE":0,"CLASSIFICATION_TYPE":"U","NORAD_CAT_ID":63728,"ELEMENT_SET_NO":999,"REV_AT_EPOCH":368,"BSTAR":0.003081,"MEAN_MOTION_DOT":0.00023462,"MEAN_MOTION_DDOT":0},{"OBJECT_NAME":"KUIPER-00013","OBJECT_ID":"2025-088F","EPOCH":"2026-03-04T04:14:55.647744","MEAN_MOTION":14.79807407,"ECCENTRICITY":0.000298,"INCLINATION":51.9026,"RA_OF_ASC_NODE":132.4735,"ARG_OF_PERICENTER":26.7478,"MEAN_ANOMALY":333.3638,"EPHEMERIS_TYPE":0,"CLASSIFICATION_TYPE":"U","NORAD_CAT_ID":63729,"ELEMENT_SET_NO":999,"REV_AT_EPOCH":4675,"BSTAR":0.00066362,"MEAN_MOTION_DOT":4.826e-5,"MEAN_MOTION_DDOT":0},{"OBJECT_NAME":"KUIPER-00014","OBJECT_ID":"2025-088G","EPOCH":"2026-03-04T04:12:15.660000","MEAN_MOTION":14.79994604,"ECCENTRICITY":4.36e-5,"INCLINATION":51.901,"RA_OF_ASC_NODE":133.4514,"ARG_OF_PERICENTER":16.1966,"MEAN_ANOMALY":343.901,"EPHEMERIS_TYPE":0,"CLASSIFICATION_TYPE":"U","NORAD_CAT_ID":63730,"ELEMENT_SET_NO":999,"REV_AT_EPOCH":4655,"BSTAR":0.0010374,"MEAN_MOTION_DOT":7.708e-5,"MEAN_MOTION_DDOT":0},{"OBJECT_NAME":"KUIPER-00015","OBJECT_ID":"2025-088H","EPOCH":"2026-03-03T15:50:57.163776","MEAN_MOTION":14.83576691,"ECCENTRICITY":0.00097197,"INCLINATION":51.8986,"RA_OF_ASC_NODE":145.1515,"ARG_OF_PERICENTER":55.0068,"MEAN_ANOMALY":305.1807,"EPHEMERIS_TYPE":0,"CLASSIFICATION_TYPE":"U","NORAD_CAT_ID":63731,"ELEMENT_SET_NO":999,"REV_AT_EPOCH":4680,"BSTAR":0.00099876422,"MEAN_MOTION_DOT":8.095e-5,"MEAN_MOTION_DDOT":0},{"OBJECT_NAME":"KUIPER-00016","OBJECT_ID":"2025-088J","EPOCH":"2026-03-03T15:10:39.011808","MEAN_MOTION":14.79839712,"ECCENTRICITY":0.0006457,"INCLINATION":51.9011,"RA_OF_ASC_NODE":138.382,"ARG_OF_PERICENTER":58.121,"MEAN_ANOMALY":302.038,"EPHEMERIS_TYPE":0,"CLASSIFICATION_TYPE":"U","NORAD_CAT_ID":63732,"ELEMENT_SET_NO":999,"REV_AT_EPOCH":4643,"BSTAR":0.00085141,"MEAN_MOTION_DOT":6.262e-5,"MEAN_MOTION_DDOT":0},{"OBJECT_NAME":"KUIPER-00018","OBJECT_ID":"2025-088K","EPOCH":"2026-03-04T04:00:03.000096","MEAN_MOTION":14.79949961,"ECCENTRICITY":0.0003057,"INCLINATION":51.9017,"RA_OF_ASC_NODE":124.9877,"ARG_OF_PERICENTER":83.8586,"MEAN_ANOMALY":179.2546,"EPHEMERIS_TYPE":0,"CLASSIFICATION_TYPE":"U","NORAD_CAT_ID":63733,"ELEMENT_SET_NO":999,"REV_AT_EPOCH":291,"BSTAR":-0.00017992,"MEAN_MOTION_DOT":-1.594e-5,"MEAN_MOTION_DDOT":0},{"OBJECT_NAME":"KUIPER-00019","OBJECT_ID":"2025-088L","EPOCH":"2026-03-04T04:28:01.097184","MEAN_MOTION":14.79938946,"ECCENTRICITY":6.04e-5,"INCLINATION":51.9,"RA_OF_ASC_NODE":123.4323,"ARG_OF_PERICENTER":107.4666,"MEAN_ANOMALY":252.6362,"EPHEMERIS_TYPE":0,"CLASSIFICATION_TYPE":"U","NORAD_CAT_ID":63734,"ELEMENT_SET_NO":999,"REV_AT_EPOCH":4669,"BSTAR":0.00030719,"MEAN_MOTION_DOT":2.122e-5,"MEAN_MOTION_DDOT":0},{"OBJECT_NAME":"KUIPER-00020","OBJECT_ID":"2025-088M","EPOCH":"2026-03-03T13:47:26.684160","MEAN_MOTION":14.7988489,"ECCENTRICITY":0.0006711,"INCLINATION":51.9016,"RA_OF_ASC_NODE":130.1296,"ARG_OF_PERICENTER":65.7209,"MEAN_ANOMALY":294.4453,"EPHEMERIS_TYPE":0,"CLASSIFICATION_TYPE":"U","NORAD_CAT_ID":63735,"ELEMENT_SET_NO":999,"REV_AT_EPOCH":4675,"BSTAR":0.00047122,"MEAN_MOTION_DOT":3.368e-5,"MEAN_MOTION_DDOT":0},{"OBJECT_NAME":"KUIPER-00021","OBJECT_ID":"2025-088N","EPOCH":"2026-03-03T13:45:07.054848","MEAN_MOTION":14.799653,"ECCENTRICITY":0.0003305,"INCLINATION":51.9008,"RA_OF_ASC_NODE":131.1335,"ARG_OF_PERICENTER":71.8347,"MEAN_ANOMALY":288.2975,"EPHEMERIS_TYPE":0,"CLASSIFICATION_TYPE":"U","NORAD_CAT_ID":63736,"ELEMENT_SET_NO":999,"REV_AT_EPOCH":4657,"BSTAR":0.0013372,"MEAN_MOTION_DOT":9.996e-5,"MEAN_MOTION_DDOT":0},{"OBJECT_NAME":"KUIPER-00023","OBJECT_ID":"2025-088P","EPOCH":"2026-03-04T04:18:43.285824","MEAN_MOTION":14.7990061,"ECCENTRICITY":0.0008413,"INCLINATION":51.9007,"RA_OF_ASC_NODE":129.9111,"ARG_OF_PERICENTER":82.1213,"MEAN_ANOMALY":278.0704,"EPHEMERIS_TYPE":0,"CLASSIFICATION_TYPE":"U","NORAD_CAT_ID":63737,"ELEMENT_SET_NO":999,"REV_AT_EPOCH":4694,"BSTAR":-9.4558e-5,"MEAN_MOTION_DOT":-9.44e-6,"MEAN_MOTION_DDOT":0},{"OBJECT_NAME":"KUIPER-00024","OBJECT_ID":"2025-088Q","EPOCH":"2026-03-04T03:00:54.468288","MEAN_MOTION":14.79936946,"ECCENTRICITY":6.62e-5,"INCLINATION":51.9034,"RA_OF_ASC_NODE":117.7163,"ARG_OF_PERICENTER":82.7245,"MEAN_ANOMALY":277.3792,"EPHEMERIS_TYPE":0,"CLASSIFICATION_TYPE":"U","NORAD_CAT_ID":63738,"ELEMENT_SET_NO":999,"REV_AT_EPOCH":4723,"BSTAR":0.00038738,"MEAN_MOTION_DOT":2.733e-5,"MEAN_MOTION_DDOT":0},{"OBJECT_NAME":"KUIPER-00025","OBJECT_ID":"2025-088R","EPOCH":"2026-03-03T10:18:44.166240","MEAN_MOTION":14.83449957,"ECCENTRICITY":2.517e-5,"INCLINATION":51.9028,"RA_OF_ASC_NODE":129.1898,"ARG_OF_PERICENTER":53.5576,"MEAN_ANOMALY":306.5411,"EPHEMERIS_TYPE":0,"CLASSIFICATION_TYPE":"U","NORAD_CAT_ID":63739,"ELEMENT_SET_NO":999,"REV_AT_EPOCH":4687,"BSTAR":0.00018687696,"MEAN_MOTION_DOT":1.322e-5,"MEAN_MOTION_DDOT":0},{"OBJECT_NAME":"KUIPER-00027","OBJECT_ID":"2025-088S","EPOCH":"2026-03-04T04:34:15.209184","MEAN_MOTION":14.79922079,"ECCENTRICITY":8.55e-5,"INCLINATION":51.9006,"RA_OF_ASC_NODE":119.9021,"ARG_OF_PERICENTER":90.5677,"MEAN_ANOMALY":269.5384,"EPHEMERIS_TYPE":0,"CLASSIFICATION_TYPE":"U","NORAD_CAT_ID":63740,"ELEMENT_SET_NO":999,"REV_AT_EPOCH":4680,"BSTAR":0.00096286,"MEAN_MOTION_DOT":7.125e-5,"MEAN_MOTION_DDOT":0}]
